{"fetched_at":"2026-07-14T17:40:21.416Z","source":"https://celestrak.org/NORAD/elements/gp.php?GROUP=kuiper&FORMAT=JSON","constellation":"kuiper","records":[{"OBJECT_NAME":"KUIPER-00008","OBJECT_ID":"2025-088A","EPOCH":"2026-07-13T09:49:03.848448","CLASSIFICATION_TYPE":"U","MEAN_MOTION":14.79933176,"ECCENTRICITY":0.00005633,"INCLINATION":51.8994,"RA_OF_ASC_NODE":252.0771,"ARG_OF_PERICENTER":103.9616,"MEAN_ANOMALY":256.1409,"EPHEMERIS_TYPE":0,"NORAD_CAT_ID":63724,"ELEMENT_SET_NO":999,"REV_AT_EPOCH":6666,"BSTAR":0.00011202892,"MEAN_MOTION_DOT":0.00000633,"MEAN_MOTION_DDOT":0},{"OBJECT_NAME":"KUIPER-00009","OBJECT_ID":"2025-088B","EPOCH":"2026-07-13T16:38:43.660032","CLASSIFICATION_TYPE":"U","MEAN_MOTION":14.80657475,"ECCENTRICITY":0.0000438,"INCLINATION":51.9019,"RA_OF_ASC_NODE":268.4465,"ARG_OF_PERICENTER":128.3835,"MEAN_ANOMALY":231.7167,"EPHEMERIS_TYPE":0,"NORAD_CAT_ID":63725,"ELEMENT_SET_NO":999,"REV_AT_EPOCH":6645,"BSTAR":0.018198,"MEAN_MOTION_DOT":0.00143989,"MEAN_MOTION_DDOT":0},{"OBJECT_NAME":"KUIPER-00010","OBJECT_ID":"2025-088C","EPOCH":"2026-07-13T15:37:12.398016","CLASSIFICATION_TYPE":"U","MEAN_MOTION":14.79933609,"ECCENTRICITY":0.0000343,"INCLINATION":51.9013,"RA_OF_ASC_NODE":246.1109,"ARG_OF_PERICENTER":97.5998,"MEAN_ANOMALY":262.5003,"EPHEMERIS_TYPE":0,"NORAD_CAT_ID":63726,"ELEMENT_SET_NO":999,"REV_AT_EPOCH":6638,"BSTAR":0.000084941,"MEAN_MOTION_DOT":0.00000427,"MEAN_MOTION_DDOT":0},{"OBJECT_NAME":"KUIPER-00011","OBJECT_ID":"2025-088D","EPOCH":"2026-07-13T12:59:41.267040","CLASSIFICATION_TYPE":"U","MEAN_MOTION":14.79924133,"ECCENTRICITY":0.0000471,"INCLINATION":51.9,"RA_OF_ASC_NODE":254.145,"ARG_OF_PERICENTER":114.0331,"MEAN_ANOMALY":246.068,"EPHEMERIS_TYPE":0,"NORAD_CAT_ID":63727,"ELEMENT_SET_NO":999,"REV_AT_EPOCH":6639,"BSTAR":0.000060138,"MEAN_MOTION_DOT":0.00000237,"MEAN_MOTION_DDOT":0},{"OBJECT_NAME":"KUIPER-00012","OBJECT_ID":"2025-088E","EPOCH":"2026-07-13T12:34:21.404640","CLASSIFICATION_TYPE":"U","MEAN_MOTION":14.79935816,"ECCENTRICITY":0.00004218,"INCLINATION":51.9007,"RA_OF_ASC_NODE":239.157,"ARG_OF_PERICENTER":92.6857,"MEAN_ANOMALY":267.4153,"EPHEMERIS_TYPE":0,"NORAD_CAT_ID":63728,"ELEMENT_SET_NO":999,"REV_AT_EPOCH":6655,"BSTAR":0.000092093678,"MEAN_MOTION_DOT":0.00000481,"MEAN_MOTION_DDOT":0},{"OBJECT_NAME":"KUIPER-00013","OBJECT_ID":"2025-088F","EPOCH":"2026-07-13T12:32:31.121952","CLASSIFICATION_TYPE":"U","MEAN_MOTION":14.79933261,"ECCENTRICITY":0.0000308,"INCLINATION":51.9019,"RA_OF_ASC_NODE":271.6821,"ARG_OF_PERICENTER":106.8662,"MEAN_ANOMALY":253.2335,"EPHEMERIS_TYPE":0,"NORAD_CAT_ID":63729,"ELEMENT_SET_NO":999,"REV_AT_EPOCH":6620,"BSTAR":0.00011678,"MEAN_MOTION_DOT":0.00000669,"MEAN_MOTION_DDOT":0},{"OBJECT_NAME":"KUIPER-00014","OBJECT_ID":"2025-088G","EPOCH":"2026-07-13T13:21:06.372864","CLASSIFICATION_TYPE":"U","MEAN_MOTION":14.7993016,"ECCENTRICITY":0.00005,"INCLINATION":51.9015,"RA_OF_ASC_NODE":271.4759,"ARG_OF_PERICENTER":93.6892,"MEAN_ANOMALY":266.4128,"EPHEMERIS_TYPE":0,"NORAD_CAT_ID":63730,"ELEMENT_SET_NO":999,"REV_AT_EPOCH":6602,"BSTAR":0.00010218,"MEAN_MOTION_DOT":0.00000558,"MEAN_MOTION_DDOT":0},{"OBJECT_NAME":"KUIPER-00015","OBJECT_ID":"2025-088H","EPOCH":"2026-07-13T10:39:43.747776","CLASSIFICATION_TYPE":"U","MEAN_MOTION":14.79930685,"ECCENTRICITY":0.00004121,"INCLINATION":51.8998,"RA_OF_ASC_NODE":282.0337,"ARG_OF_PERICENTER":109.2032,"MEAN_ANOMALY":250.8975,"EPHEMERIS_TYPE":0,"NORAD_CAT_ID":63731,"ELEMENT_SET_NO":999,"REV_AT_EPOCH":6632,"BSTAR":-0.00010657298,"MEAN_MOTION_DOT":-0.00001033,"MEAN_MOTION_DDOT":0},{"OBJECT_NAME":"KUIPER-00016","OBJECT_ID":"2025-088J","EPOCH":"2026-07-13T16:31:44.279616","CLASSIFICATION_TYPE":"U","MEAN_MOTION":14.79931138,"ECCENTRICITY":0.0000541,"INCLINATION":51.9012,"RA_OF_ASC_NODE":273.4032,"ARG_OF_PERICENTER":88.6857,"MEAN_ANOMALY":271.4168,"EPHEMERIS_TYPE":0,"NORAD_CAT_ID":63732,"ELEMENT_SET_NO":999,"REV_AT_EPOCH":6600,"BSTAR":0.00020367,"MEAN_MOTION_DOT":0.00001332,"MEAN_MOTION_DDOT":0},{"OBJECT_NAME":"KUIPER-00018","OBJECT_ID":"2025-088K","EPOCH":"2026-07-14T04:56:34.104192","CLASSIFICATION_TYPE":"U","MEAN_MOTION":14.79932199,"ECCENTRICITY":0.0000422,"INCLINATION":51.9032,"RA_OF_ASC_NODE":261.1477,"ARG_OF_PERICENTER":94.0312,"MEAN_ANOMALY":266.0698,"EPHEMERIS_TYPE":0,"NORAD_CAT_ID":63733,"ELEMENT_SET_NO":999,"REV_AT_EPOCH":6622,"BSTAR":0.000066545,"MEAN_MOTION_DOT":0.00000286,"MEAN_MOTION_DDOT":0},{"OBJECT_NAME":"KUIPER-00019","OBJECT_ID":"2025-088L","EPOCH":"2026-07-13T11:45:18.122112","CLASSIFICATION_TYPE":"U","MEAN_MOTION":14.79930485,"ECCENTRICITY":0.00005009,"INCLINATION":51.9008,"RA_OF_ASC_NODE":263.0735,"ARG_OF_PERICENTER":83.5391,"MEAN_ANOMALY":276.5628,"EPHEMERIS_TYPE":0,"NORAD_CAT_ID":63734,"ELEMENT_SET_NO":999,"REV_AT_EPOCH":6613,"BSTAR":0.00010061908,"MEAN_MOTION_DOT":0.00000546,"MEAN_MOTION_DDOT":0},{"OBJECT_NAME":"KUIPER-00020","OBJECT_ID":"2025-088M","EPOCH":"2026-07-13T09:25:43.515264","CLASSIFICATION_TYPE":"U","MEAN_MOTION":14.7990123,"ECCENTRICITY":0.00005824,"INCLINATION":51.9017,"RA_OF_ASC_NODE":267.2463,"ARG_OF_PERICENTER":81.6584,"MEAN_ANOMALY":278.4444,"EPHEMERIS_TYPE":0,"NORAD_CAT_ID":63735,"ELEMENT_SET_NO":999,"REV_AT_EPOCH":6627,"BSTAR":0.000099135992,"MEAN_MOTION_DOT":0.00000534,"MEAN_MOTION_DDOT":0},{"OBJECT_NAME":"KUIPER-00021","OBJECT_ID":"2025-088N","EPOCH":"2026-07-13T11:51:38.396160","CLASSIFICATION_TYPE":"U","MEAN_MOTION":14.79931175,"ECCENTRICITY":0.00004626,"INCLINATION":51.8997,"RA_OF_ASC_NODE":266.753,"ARG_OF_PERICENTER":59.1536,"MEAN_ANOMALY":300.9472,"EPHEMERIS_TYPE":0,"NORAD_CAT_ID":63736,"ELEMENT_SET_NO":999,"REV_AT_EPOCH":6612,"BSTAR":-0.000037379069,"MEAN_MOTION_DOT":-0.00000506,"MEAN_MOTION_DDOT":0},{"OBJECT_NAME":"KUIPER-00023","OBJECT_ID":"2025-088P","EPOCH":"2026-07-14T04:48:39.686112","CLASSIFICATION_TYPE":"U","MEAN_MOTION":14.7989757,"ECCENTRICITY":0.0000472,"INCLINATION":51.9002,"RA_OF_ASC_NODE":266.119,"ARG_OF_PERICENTER":98.3702,"MEAN_ANOMALY":261.7314,"EPHEMERIS_TYPE":0,"NORAD_CAT_ID":63737,"ELEMENT_SET_NO":999,"REV_AT_EPOCH":6649,"BSTAR":0.0001667,"MEAN_MOTION_DOT":0.00001049,"MEAN_MOTION_DDOT":0},{"OBJECT_NAME":"KUIPER-00024","OBJECT_ID":"2025-088Q","EPOCH":"2026-07-14T05:08:14.116992","CLASSIFICATION_TYPE":"U","MEAN_MOTION":14.79930123,"ECCENTRICITY":0.0000432,"INCLINATION":51.9034,"RA_OF_ASC_NODE":253.6585,"ARG_OF_PERICENTER":105.7476,"MEAN_ANOMALY":254.3534,"EPHEMERIS_TYPE":0,"NORAD_CAT_ID":63738,"ELEMENT_SET_NO":999,"REV_AT_EPOCH":6679,"BSTAR":-0.000057364,"MEAN_MOTION_DOT":-0.00000658,"MEAN_MOTION_DDOT":0},{"OBJECT_NAME":"KUIPER-00025","OBJECT_ID":"2025-088R","EPOCH":"2026-07-13T11:55:33.475008","CLASSIFICATION_TYPE":"U","MEAN_MOTION":14.79930964,"ECCENTRICITY":0.00003498,"INCLINATION":51.9028,"RA_OF_ASC_NODE":264.3112,"ARG_OF_PERICENTER":55.0398,"MEAN_ANOMALY":305.0598,"EPHEMERIS_TYPE":0,"NORAD_CAT_ID":63739,"ELEMENT_SET_NO":999,"REV_AT_EPOCH":6644,"BSTAR":0.00012348498,"MEAN_MOTION_DOT":0.0000072,"MEAN_MOTION_DDOT":0}]}
